STARLINK-31082          
1 58606U 23200T   24119.14355360  .00006118  00000+0  46754-3 0  9990
2 58606  43.0012 268.0556 0001829 258.3544 101.7093 15.02539968 21248
STARLINK-31069          
1 58607U 23200U   24119.13689789 -.00002187  00000+0 -14685-3 0  9997
2 58607  43.0008 268.0037 0000628 331.2782  28.8026 15.02538189 21248
STARLINK-31067          
1 58608U 23200V   24119.13355575  .00000745  00000+0  70233-4 0  9999
2 58608  43.0026 267.9738 0001800 274.4335  85.6302 15.02542318 21247
STARLINK-31085          
1 58609U 23200W   24119.13023978  .00002600  00000+0  20749-3 0  9997
2 58609  43.0019 267.9457 0001853 248.5915 111.4729 15.02529013 21251
STARLINK-31089          
1 58610U 23200X   24118.78799849 -.00010794  00000+0 -78618-3 0  9999
2 58610  43.0005 270.4779 0001628 276.7920  83.2737 15.02489952 21165
STARLINK-31061          
1 58611U 23200Y   24119.12690429  .00031875  00000+0  23640-2 0  9998
2 58611  43.0013 267.9183 0002204 264.2437  95.8154 15.02534651 21238
STARLINK-31054          
1 58619U 23203B   24118.92698514 -.00013942  00000+0 -52402-3 0  9995
2 58619  43.0011 307.7300 0002183 269.0183  91.0418 15.25914270 19495
STARLINK-31118          
1 58620U 23203C   24118.86612816  .00058577  00000+0  16720-2 0  9994
2 58620  43.0005 306.4158 0011850 299.5297  60.4375 15.35149744 20730
STARLINK-31134          
1 58621U 23203D   24118.91569294 -.00030833  00000+0 -11749-2 0  9995
2 58621  43.0011 307.6329 0002109 246.3531 113.7098 15.25876790 19491
STARLINK-31133          
1 58622U 23203E   24118.92248715 -.00008483  00000+0 -31514-3 0  9998
2 58622  43.0013 307.6923 0001868 268.3898  91.6740 15.25876896 19490
STARLINK-31068          
1 58623U 23203F   24118.92021317 -.00011243  00000+0 -42076-3 0  9999
2 58623  43.0015 307.6751 0001651 272.3911  87.6751 15.25898627 20667
STARLINK-31129          
1 58624U 23203G   24118.91797508 -.00007734  00000+0 -28643-3 0  9995
2 58624  43.0015 307.6546 0001668 267.0499  93.0161 15.25872979 19497
STARLINK-30774          
1 58625U 23203H   24118.91116946  .00009396  00000+0  36828-3 0  9995
2 58625  43.0020 307.5995 0002096 264.3493  95.7119 15.25935837 19496
STARLINK-31086          
1 58626U 23203J   24119.21571846 -.00007930  00000+0 -29390-3 0  9994
2 58626  43.0008 304.7145 0001625 270.2579  89.8086 15.25878736 20771
STARLINK-31065          
1 58627U 23203K   24119.22011142 -.00001680  00000+0 -54452-4 0  9998
2 58627  43.0014 303.8834 0001429 283.3963  76.6729 15.25878560 20670
STARLINK-31092          
1 58628U 23203L   24118.90891454  .00009322  00000+0  36578-3 0  9992
2 58628  43.0009 307.5806 0002332 258.4929 101.5661 15.25908008 19496
STARLINK-31091          
1 58629U 23203M   24118.90438359 -.00010929  00000+0 -40889-3 0  9991
2 58629  43.0007 307.5344 0001014 300.4972  59.5779 15.25884861 20555
STARLINK-31084          
1 58630U 23203N   24118.90211247 -.00008972  00000+0 -33377-3 0  9997
2 58630  43.0016 307.5132 0001652 270.5791  89.4870 15.25889165 19493
STARLINK-31064          
1 58631U 23203P   24118.89761418  .00008569  00000+0  33700-3 0  9996
2 58631  43.0005 307.4794 0001269 273.4448  86.6257 15.25912811 20664
STARLINK-31081          
1 58632U 23203Q   24119.22264482 -.00007122  00000+0 -26299-3 0  9995
2 58632  43.0002 305.6184 0001583 272.9152  87.1518 15.25872246 20719
STARLINK-31022          
1 58633U 23203R   24118.89984336 -.00023903  00000+0 -90699-3 0  9995
2 58633  42.9998 307.4959 0001883 267.5299  92.5337 15.25904413 20729
STARLINK-31025          
1 58634U 23203S   24118.88572406 -.00001419  00000+0 -44404-4 0  9998
2 58634  43.0015 303.8817 0001502 287.5868  72.4819 15.25920951 20768
STARLINK-31018          
1 58635U 23203T   24118.87287515 -.00007870  00000+0 -29171-3 0  9992
2 58635  43.0007 308.1786 0001177 292.3604  67.7122 15.25868551 20719
STARLINK-31008          
1 58636U 23203U   24119.20241882 -.00002503  00000+0 -85921-4 0  9992
2 58636  43.0004 306.3504 0001310 276.8611  83.2091 15.25887557 20769
STARLINK-31077          
1 58637U 23203V   24118.93605336 -.00009181  00000+0 -34172-3 0  9990
2 58637  43.0007 307.7976 0001587 276.0834  83.9836 15.25895943 20724
STARLINK-31078          
1 58638U 23203W   24118.93151709 -.00006220  00000+0 -22817-3 0  9995
2 58638  42.9986 307.7660 0002164 271.3728  88.6875 15.25901590 19494
STARLINK-31070          
1 58639U 23203X   24118.92925076  .00021699  00000+0  83713-3 0  9998
2 58639  43.0002 307.7483 0001668 274.9825  85.0836 15.25901418 19491
STARLINK-31090          
1 58640U 23203Y   24119.18483998 -.00006022  00000+0 -22066-3 0  9990
2 58640  43.0004 297.5661 0002571 276.8481  83.2077 15.25891628 20874
STARLINK-31113          
1 58668U 23211B   24118.91038553 -.00031262  00000+0 -11923-2 0  9995
2 58668  43.0014 324.3466 0002026 260.6334  99.4288 15.25853861 18417
STARLINK-31128          
1 58669U 23211C   24118.89227891  .00001236  00000+0  57073-4 0  9992
2 58669  43.0033 324.2022 0002100 271.9109  88.1501 15.25931356 18413
STARLINK-31083          
1 58670U 23211D   24118.91491048  .00004857  00000+0  19548-3 0  9990
2 58670  42.9993 324.3851 0001768 285.7122  74.3534 15.25892415 18411
STARLINK-30828          
1 58671U 23211E   24118.87193197  .00009284  00000+0  36402-3 0  9997
2 58671  43.0025 324.0343 0002200 272.2832  87.7767 15.25937113 18415
STARLINK-31104          
1 58672U 23211F   24118.91717256  .00013039  00000+0  50709-3 0  9990
2 58672  43.0013 324.3948 0001566 282.4958  77.5718 15.25930816 19690
STARLINK-31131          
1 58673U 23211G   24118.93789635  .00002836  00000+0  11818-3 0  9994
2 58673  42.9996 314.8903 0001359 271.8264  88.2432 15.25917342 19800
STARLINK-31124          
1 58674U 23211H   24118.90813983  .00051021  00000+0  19450-2 0  9995
2 58674  42.9989 324.3335 0001905 305.9076  54.1598 15.25940142 18410
STARLINK-31126          
1 58675U 23211J   24118.91944085 -.00008894  00000+0 -33084-3 0  9997
2 58675  43.0016 324.3988 0001770 272.2250  87.8398 15.25882735 18412
STARLINK-31066          
1 58676U 23211K   24118.85967158 -.00024615  00000+0 -18143-2 0  9994
2 58676  43.0008 334.1325 0001543 275.8034  84.2632 15.02518336 19573
STARLINK-31058          
1 58677U 23211L   24118.84040809 -.00048463  00000+0 -18590-2 0  9992
2 58677  42.9993 324.6817 0001509 271.6807  88.3871 15.25838685 18407
STARLINK-31125          
1 58678U 23211M   24118.93514016 -.00001379  00000+0 -42917-4 0  9996
2 58678  43.0012 323.6476 0001502 273.2080  86.8599 15.25885726 19595
STARLINK-31110          
1 58679U 23211N   24118.89907668 -.00012821  00000+0 -48158-3 0  9997
2 58679  43.0010 324.2575 0002194 269.6342  90.4257 15.25878181 18418
STARLINK-31112          
1 58680U 23211P   24118.89456038 -.00005272  00000+0 -19197-3 0  9992
2 58680  43.0014 324.2175 0001967 241.8772 118.1881 15.25887576 19595
STARLINK-31147          
1 58681U 23211Q   24118.96228618 -.00007124  00000+0 -26296-3 0  9998
2 58681  43.0019 323.8713 0002699 273.2280  86.8262 15.25879598 19690
STARLINK-31144          
1 58682U 23211R   24118.93285979  .00021504  00000+0  82991-3 0  9999
2 58682  43.0011 323.6313 0002100 273.3843  86.6767 15.25892803 18422
STARLINK-31095          
1 58683U 23211S   24118.89005591  .00000484  00000+0  28355-4 0  9994
2 58683  43.0031 324.1837 0001518 259.6151 100.4529 15.25877835 19681
STARLINK-31107          
1 58684U 23211T   24118.88099767 -.00012168  00000+0 -45652-3 0  9994
2 58684  43.0022 324.1007 0002211 263.5775  96.4824 15.25877405 18413
STARLINK-31121          
1 58685U 23211U   24118.87421393 -.00008256  00000+0 -30641-3 0  9993
2 58685  43.0013 324.0482 0002103 268.0125  92.0485 15.25874802 18412
STARLINK-31137          
1 58686U 23211V   24118.93062940 -.00002368  00000+0 -80815-4 0  9997
2 58686  43.0001 323.6159 0001415 279.1217  80.9474 15.25866890 18429
STARLINK-31109          
1 58687U 23211W   24118.91668981  .00633418  16398-3  19833-2 0  9998
2 58687  42.9909 284.2091 0008748 313.5550 324.4407 15.90580605  6014
STARLINK-31139          
1 58688U 23211X   24118.87872290 -.00030503  00000+0 -11626-2 0  9993
2 58688  43.0018 324.0831 0001674 269.1190  90.9469 15.25865728 18410
STARLINK-31106          
1 58689U 23211Y   24119.01644527 -.00000287  00000+0 -11063-5 0  9995
2 58689  43.0037 323.4051 0002319 256.3407 103.7186 15.25882496 19607
STARLINK-11072 [DTC]    
1 58705U 24002A   24118.92619799  .00005731  00000+0  52146-4 0  9998
2 58705  53.1580  37.4306 0001246  91.3335 268.7826 15.69703536 19418
STARLINK-11075 [DTC]    
1 58706U 24002B   24118.98497300  .00006014  00000+0  54563-4 0  9997
2 58706  53.1595  37.0872 0001224  49.1783 310.9340 15.69665633 19374
STARLINK-11077 [DTC]    
1 58707U 24002C   24119.17392092  .00017592  00000+0  14964-3 0  9995
2 58707  53.1568  36.1128 0000799 108.3811 251.7294 15.69728786 19408
STARLINK-11079 [DTC]    
1 58708U 24002D   24118.78692233  .00002641  00000+0  26678-4 0  9997
2 58708  53.1577  37.9706 0001405  75.0952 285.0222 15.69687211 19397
STARLINK-11076 [DTC]    
1 58709U 24002E   24119.14425928  .00007572  00000+0  67281-4 0  9997
2 58709  53.1580  35.9358 0001624 130.5123 229.6036 15.69719681 19296
STARLINK-11078 [DTC]    
1 58710U 24002F   24119.14652704 -.00000765  00000+0 -14611-5 0  9992
2 58710  53.1572  35.9490 0001084 104.1364 255.9774 15.69686998 19408
STARLINK-31031          
1 58711U 24002G   24119.17788646 -.00010251  00000+0 -69753-3 0  9997
2 58711  53.1605  77.5654 0001518  77.5653 282.5506 15.04936232 18727
STARLINK-31029          
1 58712U 24002H   24118.88876897  .00003827  00000+0  28657-3 0  9998
2 58712  53.1597  79.3087 0001584 105.1334 254.9831 15.04925309 18823
STARLINK-30973          
1 58713U 24002J   24118.88553929 -.00000121  00000+0  10945-4 0  9994
2 58713  53.1610  79.2921 0001851  88.7949 271.3253 15.04923427 18821
